start=new Date('2023-05-24T00:00:00.000Z').valueOf();
sats=[{"PERIAPSIS":"538.886","OBJECT_NAME":"STARLINK-3161","ECCENTRICITY":"0.00012630","SEMIMAJOR_AXIS":"6917.895","PERIOD":"95.438","NORAD_CAT_ID":"49422","EPHEMERIS_TYPE":"0","CLASSIFICATION_TYPE":"U","COUNTRY_CODE":"US","OBJECT_TYPE":"PAYLOAD","RCS_SIZE":"LARGE","FILE":"3915766","MEAN_ELEMENT_THEORY":"SGP4","DECAY_DATE":null,"MEAN_MOTION_DOT":"0.00000595","REF_FRAME":"TEME","MEAN_MOTION":"15.08835172","MEAN_ANOMALY":"274.9387","ARG_OF_PERICENTER":"85.1749","MEAN_MOTION_DDOT":"0.0000000000000","GP_ID":"232403205","BSTAR":"0.00005550000000","INCLINATION":"53.2163","OBJECT_ID":"2021-104Q","REV_AT_EPOCH":"8448","ELEMENT_SET_NO":"999","EPOCH":"2023-05-23T16:08:45.060000","TIME_SYSTEM":"UTC","TLE_LINE1":"1 49422U 21104Q   23143.67274375  .00000595  00000-0  55500-4 0  9991","LAUNCH_DATE":"2021-11-13","CENTER_NAME":"EARTH","TLE_LINE2":"2 49422  53.2163 132.6407 0001263  85.1749 274.9387 15.08835172 84486","APOAPSIS":"540.634","SITE":"AFETR","RA_OF_ASC_NODE":"132.6407"},{"LAUNCH_DATE":"2021-11-13","TLE_LINE1":"1 49423U 21104R   23143.25689875 -.00000475  00000-0 -11764-4 0  9994","RA_OF_ASC_NODE":"134.5048","TLE_LINE2":"2 49423  53.2169 134.5048 0001120  90.2102 269.9018 15.08840631 84422","CENTER_NAME":"EARTH","SITE":"AFETR","APOAPSIS":"540.518","BSTAR":"-0.00001176400000","GP_ID":"232403957","MEAN_MOTION_DDOT":"0.0000000000000","EPOCH":"2023-05-23T06:09:56.052000","ELEMENT_SET_NO":"999","TIME_SYSTEM":"UTC","OBJECT_ID":"2021-104R","INCLINATION":"53.2169","REV_AT_EPOCH":"8442","MEAN_ELEMENT_THEORY":"SGP4","DECAY_DATE":null,"MEAN_MOTION_DOT":"-0.00000475","REF_FRAME":"TEME","MEAN_MOTION":"15.08840631","FILE":"3915766","ARG_OF_PERICENTER":"90.2102","MEAN_ANOMALY":"269.9018","SEMIMAJOR_AXIS":"6917.878","OBJECT_NAME":"STARLINK-3149","PERIAPSIS":"538.969","ECCENTRICITY":"0.00011200","COUNTRY_CODE":"US","RCS_SIZE":"LARGE","OBJECT_TYPE":"PAYLOAD","CLASSIFICATION_TYPE":"U","PERIOD":"95.438","NORAD_CAT_ID":"49423","EPHEMERIS_TYPE":"0"},{"EPOCH":"2023-05-23T15:58:08.669568","ELEMENT_SET_NO":"999","TIME_SYSTEM":"UTC","REV_AT_EPOCH":"8448","INCLINATION":"53.2161","OBJECT_ID":"2021-104S","BSTAR":"-0.00000434920000","GP_ID":"232404206","MEAN_MOTION_DDOT":"0.0000000000000","RA_OF_ASC_NODE":"132.6746","TLE_LINE2":"2 49424  53.2161 132.6746 0000935  91.9551 268.1549 15.08841496 84484","CENTER_NAME":"EARTH","APOAPSIS":"540.388","SITE":"AFETR","LAUNCH_DATE":"2021-11-13","TLE_LINE1":"1 49424U 21104S   23143.66537812 -.00000357  00000-0 -43492-5 0  9996","COUNTRY_CODE":"US","RCS_SIZE":"LARGE","OBJECT_TYPE":"PAYLOAD","CLASSIFICATION_TYPE":"U","NORAD_CAT_ID":"49424","PERIOD":"95.437","EPHEMERIS_TYPE":"0","SEMIMAJOR_AXIS":"6917.876","OBJECT_NAME":"STARLINK-3135","PERIAPSIS":"539.094","ECCENTRICITY":"0.00009350","ARG_OF_PERICENTER":"91.9551","MEAN_ANOMALY":"268.1549","DECAY_DATE":null,"MEAN_ELEMENT_THEORY":"SGP4","MEAN_MOTION_DOT":"-0.00000357","MEAN_MOTION":"15.08841496","REF_FRAME":"TEME","FILE":"3915766"},{"INCLINATION":"53.2166","OBJECT_ID":"2021-104T","REV_AT_EPOCH":"8445","TIME_SYSTEM":"UTC","ELEMENT_SET_NO":"999","EPOCH":"2023-05-23T09:16:46.663680","MEAN_MOTION_DDOT":"0.0000000000000","GP_ID":"232402455","BSTAR":"0.00001304300000","APOAPSIS":"540.624","SITE":"AFETR","CENTER_NAME":"EARTH","TLE_LINE2":"2 49425  53.2166 133.9343 0001298  91.8420 268.2721 15.08846315 84459","RA_OF_ASC_NODE":"133.9343","TLE_LINE1":"1 49425U 21104T   23143.38665120 -.00000080  00000-0  13043-4 0  9990","LAUNCH_DATE":"2021-11-13","EPHEMERIS_TYPE":"0","PERIOD":"95.437","NORAD_CAT_ID":"49425","CLASSIFICATION_TYPE":"U","COUNTRY_CODE":"US","OBJECT_TYPE":"PAYLOAD","RCS_SIZE":"LARGE","ECCENTRICITY":"0.00012980","PERIAPSIS":"538.828","OBJECT_NAME":"STARLINK-3139","SEMIMAJOR_AXIS":"6917.861","MEAN_ANOMALY":"268.2721","ARG_OF_PERICENTER":"91.8420","FILE":"3915766","REF_FRAME":"TEME","MEAN_MOTION_DOT":"-0.00000080","MEAN_MOTION":"15.08846315","DECAY_DATE":null,"MEAN_ELEMENT_THEORY":"SGP4"},{"DECAY_DATE":null,"MEAN_ELEMENT_THEORY":"SGP4","MEAN_MOTION_DOT":"-0.00000176","REF_FRAME":"TEME","MEAN_MOTION":"15.08837113","FILE":"3915766","ARG_OF_PERICENTER":"93.1731","MEAN_ANOMALY":"266.9402","SEMIMAJOR_AXIS":"6917.889","PERIAPSIS":"538.898","OBJECT_NAME":"STARLINK-3114","ECCENTRICITY":"0.00012370","CLASSIFICATION_TYPE":"U","COUNTRY_CODE":"US","RCS_SIZE":"LARGE","OBJECT_TYPE":"PAYLOAD","NORAD_CAT_ID":"49426","PERIOD":"95.438","EPHEMERIS_TYPE":"0","LAUNCH_DATE":"2021-11-13","TLE_LINE1":"1 49426U 21104U   23143.65802025 -.00000176  00000-0  70464-5 0  9995","RA_OF_ASC_NODE":"132.7086","CENTER_NAME":"EARTH","TLE_LINE2":"2 49426  53.2167 132.7086 0001237  93.1731 266.9402 15.08837113 84485","SITE":"AFETR","APOAPSIS":"540.610","GP_ID":"232402705","BSTAR":"0.00000704640000","MEAN_MOTION_DDOT":"0.0000000000000","ELEMENT_SET_NO":"999","EPOCH":"2023-05-23T15:47:32.949600","TIME_SYSTEM":"UTC","INCLINATION":"53.2167","OBJECT_ID":"2021-104U","REV_AT_EPOCH":"8448"},{"TLE_LINE1":"1 49427U 21104V   23143.38201646  .00000108  00000-0  24861-4 0  9991","LAUNCH_DATE":"2021-11-13","TLE_LINE2":"2 49427  53.2168 133.9435 0001302  94.9302 265.1839 15.08843400 84452","CENTER_NAME":"EARTH","APOAPSIS":"540.636","SITE":"AFETR","RA_OF_ASC_NODE":"133.9435","MEAN_MOTION_DDOT":"0.0000000000000","BSTAR":"0.00002486100000","GP_ID":"232403457","OBJECT_ID":"2021-104V","INCLINATION":"53.2168","REV_AT_EPOCH":"8445","EPOCH":"2023-05-23T09:10:06.222144","ELEMENT_SET_NO":"999","TIME_SYSTEM":"UTC","FILE":"3915766","DECAY_DATE":null,"MEAN_ELEMENT_THEORY":"SGP4","MEAN_MOTION_DOT":"0.00000108","REF_FRAME":"TEME","MEAN_MOTION":"15.08843400","MEAN_ANOMALY":"265.1839","ARG_OF_PERICENTER":"94.9302","OBJECT_NAME":"STARLINK-3131","PERIAPSIS":"538.834","ECCENTRICITY":"0.00013020","SEMIMAJOR_AXIS":"6917.870","NORAD_CAT_ID":"49427","PERIOD":"95.437","EPHEMERIS_TYPE":"0","RCS_SIZE":"LARGE","COUNTRY_CODE":"US","OBJECT_TYPE":"PAYLOAD","CLASSIFICATION_TYPE":"U"},{"APOAPSIS":"540.551","SITE":"AFETR","TLE_LINE2":"2 49428  53.2162 132.5014 0001165  98.7824 261.3300 15.08840014 84508","CENTER_NAME":"EARTH","RA_OF_ASC_NODE":"132.5014","TLE_LINE1":"1 49428U 21104W   23143.70313757 -.00000197  00000-0  57122-5 0  9991","LAUNCH_DATE":"2021-11-13","INCLINATION":"53.2162","REV_AT_EPOCH":"8450","OBJECT_ID":"2021-104W","TIME_SYSTEM":"UTC","EPOCH":"2023-05-23T16:52:31.086048","ELEMENT_SET_NO":"999","MEAN_MOTION_DDOT":"0.0000000000000","BSTAR":"0.00000571220000","GP_ID":"232403706","MEAN_ANOMALY":"261.3300","ARG_OF_PERICENTER":"98.7824","FILE":"3915766","MEAN_MOTION_DOT":"-0.00000197","REF_FRAME":"TEME","MEAN_MOTION":"15.08840014","DECAY_DATE":null,"MEAN_ELEMENT_THEORY":"SGP4","EPHEMERIS_TYPE":"0","PERIOD":"95.438","NORAD_CAT_ID":"49428","COUNTRY_CODE":"US","OBJECT_TYPE":"PAYLOAD","RCS_SIZE":"LARGE","CLASSIFICATION_TYPE":"U","ECCENTRICITY":"0.00011650","OBJECT_NAME":"STARLINK-3121","PERIAPSIS":"538.939","SEMIMAJOR_AXIS":"6917.880"},{"FILE":"3915766","DECAY_DATE":null,"MEAN_ELEMENT_THEORY":"SGP4","MEAN_MOTION_DOT":"-0.00000260","REF_FRAME":"TEME","MEAN_MOTION":"15.08841438","MEAN_ANOMALY":"269.9338","ARG_OF_PERICENTER":"90.1798","OBJECT_NAME":"STARLINK-3138","PERIAPSIS":"538.872","ECCENTRICITY":"0.00012560","SEMIMAJOR_AXIS":"6917.876","PERIOD":"95.437","NORAD_CAT_ID":"49430","EPHEMERIS_TYPE":"0","COUNTRY_CODE":"US","OBJECT_TYPE":"PAYLOAD","RCS_SIZE":"LARGE","CLASSIFICATION_TYPE":"U","TLE_LINE1":"1 49430U 21104Y   23143.37834055 -.00000260  00000-0  17779-5 0  9991","LAUNCH_DATE":"2021-11-13","TLE_LINE2":"2 49430  53.2161 133.9590 0001256  90.1798 269.9338 15.08841438 84451","CENTER_NAME":"EARTH","SITE":"AFETR","APOAPSIS":"540.610","RA_OF_ASC_NODE":"133.9590","MEAN_MOTION_DDOT":"0.0000000000000","BSTAR":"0.00000177790000","GP_ID":"232402956","OBJECT_ID":"2021-104Y","REV_AT_EPOCH":"8445","INCLINATION":"53.2161","EPOCH":"2023-05-23T09:04:48.623520","ELEMENT_SET_NO":"999","TIME_SYSTEM":"UTC"},{"ARG_OF_PERICENTER":"91.2249","MEAN_ANOMALY":"268.8909","DECAY_DATE":null,"MEAN_ELEMENT_THEORY":"SGP4","REF_FRAME":"TEME","MEAN_MOTION_DOT":"0.00000089","MEAN_MOTION":"15.08836736","FILE":"3915766","CLASSIFICATION_TYPE":"U","COUNTRY_CODE":"US","OBJECT_TYPE":"PAYLOAD","RCS_SIZE":"LARGE","PERIOD":"95.438","NORAD_CAT_ID":"49431","EPHEMERIS_TYPE":"0","SEMIMAJOR_AXIS":"6917.890","PERIAPSIS":"538.754","OBJECT_NAME":"STARLINK-3153","ECCENTRICITY":"0.00014470","RA_OF_ASC_NODE":"132.8001","CENTER_NAME":"EARTH","TLE_LINE2":"2 49431  53.2158 132.8001 0001447  91.2249 268.8909 15.08836736 84499","SITE":"AFETR","APOAPSIS":"540.756","LAUNCH_DATE":"2021-11-13","TLE_LINE1":"1 49431U 21104Z   23143.69485591  .00000089  00000-0  23705-4 0  9997","ELEMENT_SET_NO":"999","EPOCH":"2023-05-23T16:40:35.550624","TIME_SYSTEM":"UTC","REV_AT_EPOCH":"8449","INCLINATION":"53.2158","OBJECT_ID":"2021-104Z","GP_ID":"232403206","BSTAR":"0.00002370500000","MEAN_MOTION_DDOT":"0.0000000000000"},{"SEMIMAJOR_AXIS":"6917.872","PERIAPSIS":"538.948","OBJECT_NAME":"STARLINK-3158","ECCENTRICITY":"0.00011410","CLASSIFICATION_TYPE":"U","OBJECT_TYPE":"PAYLOAD","COUNTRY_CODE":"US","RCS_SIZE":"LARGE","NORAD_CAT_ID":"49432","PERIOD":"95.437","EPHEMERIS_TYPE":"0","MEAN_ELEMENT_THEORY":"SGP4","DECAY_DATE":null,"MEAN_MOTION_DOT":"-0.00000695","REF_FRAME":"TEME","MEAN_MOTION":"15.08842700","FILE":"3915766","ARG_OF_PERICENTER":"92.9533","MEAN_ANOMALY":"267.1590","GP_ID":"232403958","BSTAR":"-0.00002561300000","MEAN_MOTION_DDOT":"0.0000000000000","ELEMENT_SET_NO":"999","EPOCH":"2023-05-23T16:11:26.791296","TIME_SYSTEM":"UTC","OBJECT_ID":"2021-104AA","INCLINATION":"53.2150","REV_AT_EPOCH":"8463","LAUNCH_DATE":"2021-11-13","TLE_LINE1":"1 49432U 21104AA  23143.67461564 -.00000695  00000-0 -25613-4 0  9995","RA_OF_ASC_NODE":"122.6344","CENTER_NAME":"EARTH","TLE_LINE2":"2 49432  53.2150 122.6344 0001141  92.9533 267.1590 15.08842700 84636","SITE":"AFETR","APOAPSIS":"540.526"}];
